FLOCK 4Q-16             
1 58271U 23174R   26188.76613935  .00013002  00000+0  23217-3 0  9998
2 58271  97.3826 277.3639 0007014  98.6691 261.5355 15.50155631148763
FLOCK 4Q-11             
1 58273U 23174T   26188.22524791  .00020030  00000+0  35097-3 0  9990
2 58273  97.3857 277.4360 0006854  95.5232 264.6801 15.50594551148699
FLOCK 4Q-28             
1 58280U 23174AA  26188.75810091  .00020977  00000+0  29781-3 0  9990
2 58280  97.3877 280.6490 0005469  86.5273 273.6607 15.56433592148940
FLOCK 4Q-27             
1 58282U 23174AC  26188.76081565  .00018662  00000+0  26330-3 0  9994
2 58282  97.3805 280.0638 0004606  90.5166 269.6617 15.56630679148951
FLOCK 4Q-7              
1 58318U 23174BQ  26188.78082802  .00025536  00000+0  35468-3 0  9991
2 58318  97.3902 280.9889 0005269  70.5945 289.5879 15.56988862148956
FLOCK 4Q-2              
1 58320U 23174BS  26188.85523134  .00016360  00000+0  28728-3 0  9996
2 58320  97.3832 277.7979 0005504  74.0429 286.1429 15.50587459148802
FLOCK 4Q-9              
1 58322U 23174BU  26188.03557136  .00022682  00000+0  39118-3 0  9996
2 58322  97.3854 277.0603 0006436  77.1247 283.0724 15.51023050148663
FLOCK 4Q-4              
1 58327U 23174BZ  26188.23586495  .00017695  00000+0  32141-3 0  9990
2 58327  97.3818 276.4031 0006312  96.7233 263.4737 15.49601732148663
FLOCK 4Q-13             
1 58328U 23174CA  26188.49414487  .00016883  00000+0  27566-3 0  9993
2 58328  97.4001 279.9161 0006441  78.7919 281.4058 15.52621855148821
FLOCK 4BE-18            
1 60480U 24149N   26188.77921150  .00009526  00000+0  22115-3 0  9990
2 60480  97.3718 272.7324 0004488 164.9204 195.2178 15.42578164105486
FLOCK 4BE-7             
1 60481U 24149P   26188.74121345  .00016481  00000+0  39831-3 0  9997
2 60481  97.3752 271.9967 0003775 169.1066 191.0263 15.41228317105413
FLOCK 4BE-36            
1 60486U 24149U   26188.02638873  .00013008  00000+0  29345-3 0  9993
2 60486  97.3735 272.7003 0004140 175.2705 184.8583 15.43353640105419
FLOCK 4BE-25            
1 60487U 24149V   26188.76270532  .00009831  00000+0  25335-3 0  9993
2 60487  97.3790 272.0594 0003165 158.7620 201.3758 15.39400433105403
FLOCK 4BE-31            
1 60488U 24149W   26188.75107676  .00014426  00000+0  30829-3 0  9991
2 60488  97.3790 274.3529 0003285 170.1346 189.9968 15.44940045105557
FLOCK 4BE-20            
1 60489U 24149X   26188.67125766  .00009877  00000+0  26063-3 0  9992
2 60489  97.3688 270.7948 0004339 173.8543 186.2757 15.38668067105368
FLOCK 4BE-23            
1 60490U 24149Y   26188.66697311  .00009462  00000+0  25339-3 0  9998
2 60490  97.3770 271.1770 0003912 177.3071 182.8195 15.38226346105347
