{"fetched_at":"2026-07-08T07:03:36.533Z","source":"https://celestrak.org/NORAD/elements/gp.php?GROUP=planet&FORMAT=JSON","constellation":"superdove","records":[{"OBJECT_NAME":"FLOCK 4Q-16","OBJECT_ID":"2023-174R","EPOCH":"2026-07-07T18:23:14.439840","CLASSIFICATION_TYPE":"U","MEAN_MOTION":15.50155631,"ECCENTRICITY":0.0007014,"INCLINATION":97.3826,"RA_OF_ASC_NODE":277.3639,"ARG_OF_PERICENTER":98.6691,"MEAN_ANOMALY":261.5355,"EPHEMERIS_TYPE":0,"NORAD_CAT_ID":58271,"ELEMENT_SET_NO":999,"REV_AT_EPOCH":14876,"BSTAR":0.00023217,"MEAN_MOTION_DOT":0.00013002,"MEAN_MOTION_DDOT":0},{"OBJECT_NAME":"FLOCK 4Q-11","OBJECT_ID":"2023-174T","EPOCH":"2026-07-07T05:24:21.419424","CLASSIFICATION_TYPE":"U","MEAN_MOTION":15.50594551,"ECCENTRICITY":0.00068542,"INCLINATION":97.3857,"RA_OF_ASC_NODE":277.436,"ARG_OF_PERICENTER":95.5232,"MEAN_ANOMALY":264.6801,"EPHEMERIS_TYPE":0,"NORAD_CAT_ID":58273,"ELEMENT_SET_NO":999,"REV_AT_EPOCH":14869,"BSTAR":0.00035097483,"MEAN_MOTION_DOT":0.0002003,"MEAN_MOTION_DDOT":0},{"OBJECT_NAME":"FLOCK 4Q-28","OBJECT_ID":"2023-174AA","EPOCH":"2026-07-07T18:11:39.918624","CLASSIFICATION_TYPE":"U","MEAN_MOTION":15.56433592,"ECCENTRICITY":0.0005469,"INCLINATION":97.3877,"RA_OF_ASC_NODE":280.649,"ARG_OF_PERICENTER":86.5273,"MEAN_ANOMALY":273.6607,"EPHEMERIS_TYPE":0,"NORAD_CAT_ID":58280,"ELEMENT_SET_NO":999,"REV_AT_EPOCH":14894,"BSTAR":0.00029781,"MEAN_MOTION_DOT":0.00020977,"MEAN_MOTION_DDOT":0},{"OBJECT_NAME":"FLOCK 4Q-27","OBJECT_ID":"2023-174AC","EPOCH":"2026-07-07T18:15:34.472160","CLASSIFICATION_TYPE":"U","MEAN_MOTION":15.56630679,"ECCENTRICITY":0.0004606,"INCLINATION":97.3805,"RA_OF_ASC_NODE":280.0638,"ARG_OF_PERICENTER":90.5166,"MEAN_ANOMALY":269.6617,"EPHEMERIS_TYPE":0,"NORAD_CAT_ID":58282,"ELEMENT_SET_NO":999,"REV_AT_EPOCH":14895,"BSTAR":0.0002633,"MEAN_MOTION_DOT":0.00018662,"MEAN_MOTION_DDOT":0},{"OBJECT_NAME":"FLOCK 4Q-7","OBJECT_ID":"2023-174BQ","EPOCH":"2026-07-07T18:44:23.540928","CLASSIFICATION_TYPE":"U","MEAN_MOTION":15.56988862,"ECCENTRICITY":0.0005269,"INCLINATION":97.3902,"RA_OF_ASC_NODE":280.9889,"ARG_OF_PERICENTER":70.5945,"MEAN_ANOMALY":289.5879,"EPHEMERIS_TYPE":0,"NORAD_CAT_ID":58318,"ELEMENT_SET_NO":999,"REV_AT_EPOCH":14895,"BSTAR":0.00035468,"MEAN_MOTION_DOT":0.00025536,"MEAN_MOTION_DDOT":0},{"OBJECT_NAME":"FLOCK 4Q-2","OBJECT_ID":"2023-174BS","EPOCH":"2026-07-07T20:31:31.987776","CLASSIFICATION_TYPE":"U","MEAN_MOTION":15.50587459,"ECCENTRICITY":0.0005504,"INCLINATION":97.3832,"RA_OF_ASC_NODE":277.7979,"ARG_OF_PERICENTER":74.0429,"MEAN_ANOMALY":286.1429,"EPHEMERIS_TYPE":0,"NORAD_CAT_ID":58320,"ELEMENT_SET_NO":999,"REV_AT_EPOCH":14880,"BSTAR":0.00028728,"MEAN_MOTION_DOT":0.0001636,"MEAN_MOTION_DDOT":0},{"OBJECT_NAME":"FLOCK 4Q-9","OBJECT_ID":"2023-174BU","EPOCH":"2026-07-07T00:51:13.365504","CLASSIFICATION_TYPE":"U","MEAN_MOTION":15.5102305,"ECCENTRICITY":0.00064361,"INCLINATION":97.3854,"RA_OF_ASC_NODE":277.0603,"ARG_OF_PERICENTER":77.1247,"MEAN_ANOMALY":283.0724,"EPHEMERIS_TYPE":0,"NORAD_CAT_ID":58322,"ELEMENT_SET_NO":999,"REV_AT_EPOCH":14866,"BSTAR":0.00039118052,"MEAN_MOTION_DOT":0.00022682,"MEAN_MOTION_DDOT":0},{"OBJECT_NAME":"FLOCK 4Q-4","OBJECT_ID":"2023-174BZ","EPOCH":"2026-07-07T05:39:38.731680","CLASSIFICATION_TYPE":"U","MEAN_MOTION":15.49601732,"ECCENTRICITY":0.00063127,"INCLINATION":97.3818,"RA_OF_ASC_NODE":276.4031,"ARG_OF_PERICENTER":96.7233,"MEAN_ANOMALY":263.4737,"EPHEMERIS_TYPE":0,"NORAD_CAT_ID":58327,"ELEMENT_SET_NO":999,"REV_AT_EPOCH":14866,"BSTAR":0.00032141077,"MEAN_MOTION_DOT":0.00017695,"MEAN_MOTION_DDOT":0},{"OBJECT_NAME":"FLOCK 4Q-13","OBJECT_ID":"2023-174CA","EPOCH":"2026-07-07T11:51:34.116768","CLASSIFICATION_TYPE":"U","MEAN_MOTION":15.52621855,"ECCENTRICITY":0.00064417,"INCLINATION":97.4001,"RA_OF_ASC_NODE":279.9161,"ARG_OF_PERICENTER":78.7919,"MEAN_ANOMALY":281.4058,"EPHEMERIS_TYPE":0,"NORAD_CAT_ID":58328,"ELEMENT_SET_NO":999,"REV_AT_EPOCH":14882,"BSTAR":0.00027565996,"MEAN_MOTION_DOT":0.00016883,"MEAN_MOTION_DDOT":0},{"OBJECT_NAME":"FLOCK 4BE-18","OBJECT_ID":"2024-149N","EPOCH":"2026-07-07T18:42:03.873600","CLASSIFICATION_TYPE":"U","MEAN_MOTION":15.42578164,"ECCENTRICITY":0.0004488,"INCLINATION":97.3718,"RA_OF_ASC_NODE":272.7324,"ARG_OF_PERICENTER":164.9204,"MEAN_ANOMALY":195.2178,"EPHEMERIS_TYPE":0,"NORAD_CAT_ID":60480,"ELEMENT_SET_NO":999,"REV_AT_EPOCH":10548,"BSTAR":0.00022115,"MEAN_MOTION_DOT":0.00009526,"MEAN_MOTION_DDOT":0},{"OBJECT_NAME":"FLOCK 4BE-7","OBJECT_ID":"2024-149P","EPOCH":"2026-07-07T17:47:20.842080","CLASSIFICATION_TYPE":"U","MEAN_MOTION":15.41228317,"ECCENTRICITY":0.0003775,"INCLINATION":97.3752,"RA_OF_ASC_NODE":271.9967,"ARG_OF_PERICENTER":169.1066,"MEAN_ANOMALY":191.0263,"EPHEMERIS_TYPE":0,"NORAD_CAT_ID":60481,"ELEMENT_SET_NO":999,"REV_AT_EPOCH":10541,"BSTAR":0.00039831,"MEAN_MOTION_DOT":0.00016481,"MEAN_MOTION_DDOT":0},{"OBJECT_NAME":"FLOCK 4BE-36","OBJECT_ID":"2024-149U","EPOCH":"2026-07-07T00:37:59.986272","CLASSIFICATION_TYPE":"U","MEAN_MOTION":15.4335364,"ECCENTRICITY":0.00041409,"INCLINATION":97.3735,"RA_OF_ASC_NODE":272.7003,"ARG_OF_PERICENTER":175.2705,"MEAN_ANOMALY":184.8583,"EPHEMERIS_TYPE":0,"NORAD_CAT_ID":60486,"ELEMENT_SET_NO":999,"REV_AT_EPOCH":10541,"BSTAR":0.00029345017,"MEAN_MOTION_DOT":0.00013008,"MEAN_MOTION_DDOT":0},{"OBJECT_NAME":"FLOCK 4BE-25","OBJECT_ID":"2024-149V","EPOCH":"2026-07-07T18:18:17.739648","CLASSIFICATION_TYPE":"U","MEAN_MOTION":15.39400433,"ECCENTRICITY":0.0003165,"INCLINATION":97.379,"RA_OF_ASC_NODE":272.0594,"ARG_OF_PERICENTER":158.762,"MEAN_ANOMALY":201.3758,"EPHEMERIS_TYPE":0,"NORAD_CAT_ID":60487,"ELEMENT_SET_NO":999,"REV_AT_EPOCH":10540,"BSTAR":0.00025335,"MEAN_MOTION_DOT":0.00009831,"MEAN_MOTION_DDOT":0},{"OBJECT_NAME":"FLOCK 4BE-31","OBJECT_ID":"2024-149W","EPOCH":"2026-07-07T18:01:33.032064","CLASSIFICATION_TYPE":"U","MEAN_MOTION":15.44940045,"ECCENTRICITY":0.0003285,"INCLINATION":97.379,"RA_OF_ASC_NODE":274.3529,"ARG_OF_PERICENTER":170.1346,"MEAN_ANOMALY":189.9968,"EPHEMERIS_TYPE":0,"NORAD_CAT_ID":60488,"ELEMENT_SET_NO":999,"REV_AT_EPOCH":10555,"BSTAR":0.00030829,"MEAN_MOTION_DOT":0.00014426,"MEAN_MOTION_DDOT":0},{"OBJECT_NAME":"FLOCK 4BE-20","OBJECT_ID":"2024-149X","EPOCH":"2026-07-07T16:06:36.661824","CLASSIFICATION_TYPE":"U","MEAN_MOTION":15.38668067,"ECCENTRICITY":0.0004339,"INCLINATION":97.3688,"RA_OF_ASC_NODE":270.7948,"ARG_OF_PERICENTER":173.8543,"MEAN_ANOMALY":186.2757,"EPHEMERIS_TYPE":0,"NORAD_CAT_ID":60489,"ELEMENT_SET_NO":999,"REV_AT_EPOCH":10536,"BSTAR":0.00026063,"MEAN_MOTION_DOT":0.00009877,"MEAN_MOTION_DDOT":0},{"OBJECT_NAME":"FLOCK 4BE-23","OBJECT_ID":"2024-149Y","EPOCH":"2026-07-07T16:00:26.476704","CLASSIFICATION_TYPE":"U","MEAN_MOTION":15.38226346,"ECCENTRICITY":0.0003912,"INCLINATION":97.377,"RA_OF_ASC_NODE":271.177,"ARG_OF_PERICENTER":177.3071,"MEAN_ANOMALY":182.8195,"EPHEMERIS_TYPE":0,"NORAD_CAT_ID":60490,"ELEMENT_SET_NO":999,"REV_AT_EPOCH":10534,"BSTAR":0.00025339,"MEAN_MOTION_DOT":0.00009462,"MEAN_MOTION_DDOT":0}]}
